     2.100          NAVIGATION                              RINEX VERSION / TYPE
fic2rin                                 06/13/2014 00:15:48 PGM / RUN BY / DATE
                                                            END OF HEADER
15 14  6 12  4  0  0.0 -.184798147529D-03 -.216004991671D-11  .000000000000D+00
     .180000000000D+02  .126656250000D+03  .463769317854D-08 -.110197833903D+01
     .652484595776D-05  .629427074455D-02  .115856528282D-04  .515371342850D+04
     .360000000000D+06  .119209289551D-06  .104619672115D+00 -.135973095894D-06
     .937018855236D+00  .145343750000D+03  .272493505237D+00 -.802819154926D-08
    -.160006664920D-09  .100000000000D+01  .179600000000D+04  .000000000000D+00
     .240000000000D+01  .000000000000D+00 -.102445483208D-07  .180000000000D+02
     .352806000000D+06  .400000000000D+01
16 14  6 12  4  0  0.0 -.213594641536D-03  .204636307899D-11  .000000000000D+00
     .510000000000D+02 -.126093750000D+03  .370372570361D-08  .522015325748D+00
    -.653043389320D-05  .772916444112D-02  .596418976784D-05  .515361002731D+04
     .360000000000D+06  .875443220139D-07  .229557876924D+01  .113621354103D-06
     .988280900358D+00  .278906250000D+03  .220955079780D+00 -.790175771135D-08
    -.217151902391D-09  .100000000000D+01  .179600000000D+04  .000000000000D+00
     .240000000000D+01  .000000000000D+00 -.102445483208D-07  .510000000000D+02
     .352806000000D+06  .400000000000D+01
17 14  6 12  4  0  0.0 -.100630335510D-03 -.295585778076D-11  .000000000000D+00
     .700000000000D+01 -.320937500000D+02  .420124642735D-08 -.402589162780D+00
    -.161863863468D-05  .931674940512D-02  .125002115965D-04  .515360968208D+04
     .360000000000D+06 -.596046447754D-07 -.295630824912D+01  .156462192535D-06
     .969223551388D+00  .148093750000D+03 -.209933458043D+01 -.784675542029D-08
     .658241704123D-09  .100000000000D+01  .179600000000D+04  .000000000000D+00
     .240000000000D+01  .000000000000D+00 -.102445483208D-07  .700000000000D+01
     .352806000000D+06  .400000000000D+01
18 14  6 12  4  0  0.0  .324918888509D-03  .227373675443D-11  .000000000000D+00
     .860000000000D+02 -.368125000000D+02  .565594987873D-08  .117341415320D+01
    -.187568366528D-05  .153804266592D-01  .892952084541D-05  .515369795799D+04
     .360000000000D+06 -.296160578728D-06 -.914332354687D+00 -.186264514923D-08
     .925555989465D+00  .196250000000D+03 -.203165762455D+01 -.868893335752D-08
    -.837534886690D-09  .100000000000D+01  .179600000000D+04  .000000000000D+00
     .240000000000D+01  .000000000000D+00 -.111758708954D-07  .860000000000D+02
     .352806000000D+06  .400000000000D+01
19 14  6 12  4  0  0.0 -.462208408862D-03 -.216004991671D-11  .000000000000D+00
     .890000000000D+02 -.206875000000D+02  .425517724521D-08 -.119816338141D+01
    -.120513141155D-05  .104125106009D-01  .112745910883D-04  .515362356377D+04
     .360000000000D+06  .191852450371D-06 -.290557399266D+01 -.154599547386D-06
     .966323026639D+00  .160093750000D+03  .442605213884D+00 -.771103548129D-08
     .646812656629D-09  .100000000000D+01  .179600000000D+04  .000000000000D+00
     .240000000000D+01  .000000000000D+00 -.149011611938D-07  .890000000000D+02
     .352806000000D+06  .400000000000D+01
20 14  6 12  4  0  0.0  .199092086405D-03  .397903932026D-11  .000000000000D+00
     .390000000000D+02 -.299062500000D+02  .549772900248D-08  .168894670085D+01
    -.175088644028D-05  .575055484660D-02  .801682472229D-05  .515377844048D+04
     .360000000000D+06 -.763684511185D-07 -.967398035897D+00 -.987201929092D-07
     .926522653547D+00  .205968750000D+03  .132908443928D+01 -.837606318237D-08
    -.665384858807D-09  .100000000000D+01  .179600000000D+04  .000000000000D+00
     .240000000000D+01  .000000000000D+00 -.838190317154D-08  .390000000000D+02
     .352806000000D+06  .400000000000D+01
21 14  6 12  4  0  0.0 -.366496853530D-03 -.216004991671D-11  .000000000000D+00
     .590000000000D+02  .202187500000D+02  .567702218505D-08  .213057221898D+01
     .681728124619D-06  .215186291607D-01  .531226396561D-05  .515373510551D+04
     .360000000000D+06 -.372529029846D-08 -.195986163994D+01 -.501051545143D-06
     .932062360047D+00  .263062500000D+03 -.201801285596D+01 -.829463121897D-08
     .411802867528D-09  .100000000000D+01  .179600000000D+04  .000000000000D+00
     .240000000000D+01  .000000000000D+00 -.111758708954D-07  .590000000000D+02
     .352806000000D+06  .400000000000D+01
22 14  6 12  4  0  0.0  .241502188146D-03  .318323145621D-11  .000000000000D+00
     .630000000000D+02 -.334687500000D+02  .573381026478D-08  .612656274336D+00
    -.154599547386D-05  .730318285059D-02  .833906233311D-05  .515372206306D+04
     .360000000000D+06 -.894069671631D-07 -.912473872337D+00  .149011611938D-07
     .923336021520D+00  .201218750000D+03 -.205333877414D+01 -.863821695927D-08
    -.766460497585D-09  .100000000000D+01  .179600000000D+04  .000000000000D+00
     .340000000000D+01  .000000000000D+00 -.172294676304D-07  .630000000000D+02
     .352806000000D+06  .400000000000D+01
23 14  6 12  4  0  0.0 -.280104577541D-04 -.306954461848D-11  .000000000000D+00
     .980000000000D+02  .123531250000D+03  .434982404477D-08 -.154816566729D+01
     .625662505627D-05  .946121593006D-02  .100750476122D-04  .515378056145D+04
     .360000000000D+06  .242143869400D-07  .151496017572D+00 -.173225998878D-06
     .952099104875D+00  .182062500000D+03 -.277722270400D+01 -.780818238499D-08
    -.264296723305D-10  .100000000000D+01  .179600000000D+04  .000000000000D+00
     .240000000000D+01  .000000000000D+00 -.200234353542D-07  .980000000000D+02
     .352806000000D+06  .400000000000D+01
24 14  6 12  4  0  0.0 -.299862585962D-04 -.682121026330D-12  .000000000000D+00
     .790000000000D+02  .780625000000D+02  .474662628747D-08 -.237264312268D+01
     .411458313465D-05  .208872568328D-02  .368803739548D-06  .515372843933D+04
     .360000000000D+06 -.596046447754D-07  .117831681008D+01  .335276126862D-07
     .956561375135D+00  .370750000000D+03  .349901328441D+00 -.855821362681D-08
     .244295890190D-09  .100000000000D+01  .179600000000D+04  .000000000000D+00
     .240000000000D+01  .000000000000D+00  .279396772385D-08  .790000000000D+02
     .352806000000D+06  .400000000000D+01
25 14  6 12  4  0  0.0  .247778370976D-04  .227373675443D-12  .000000000000D+00
     .230000000000D+02 -.147781250000D+03  .404552565524D-08  .188162419736D+01
    -.766478478909D-05  .365771504585D-02  .499188899994D-05  .515360463524D+04
     .360000000000D+06  .558793544769D-08  .223440534587D+01 -.204890966415D-07
     .976337862448D+00  .290218750000D+03  .700837234010D+00 -.808283668259D-08
    -.276082928534D-09  .100000000000D+01  .179600000000D+04  .000000000000D+00
     .240000000000D+01  .000000000000D+00  .512227416039D-08  .230000000000D+02
     .352806000000D+06  .400000000000D+01
26 14  6 12  4  0  0.0  .494448468089D-04 -.121644916362D-10  .000000000000D+00
     .260000000000D+02  .154687500000D+03  .378622914021D-08 -.165038388770D+01
     .811554491520D-05  .213029495208D-01  .103637576103D-04  .515370333099D+04
     .360000000000D+06  .441446900368D-06  .240224622091D+00  .318512320518D-06
     .975264621858D+00  .187406250000D+03  .128587308982D+01 -.758603027432D-08
    -.389301930274D-10  .100000000000D+01  .179600000000D+04  .000000000000D+00
     .240000000000D+01  .000000000000D+00 -.605359673500D-08  .260000000000D+02
     .352806000000D+06  .400000000000D+01
27 14  6 12  4  0  0.0 -.107395462692D-04  .284217094304D-11  .000000000000D+00
     .470000000000D+02 -.460625000000D+02  .419838916547D-08 -.396423589205D+00
    -.231154263020D-05  .130585278384D-02  .116098672152D-04  .515367983246D+04
     .360000000000D+06  .335276126862D-07 -.300191981120D+01 -.447034835815D-07
     .963990263321D+00  .157625000000D+03  .187668034910D+00 -.775710882900D-08
     .526450500205D-09  .100000000000D+01  .179600000000D+04  .000000000000D+00
     .240000000000D+01  .000000000000D+00  .186264514923D-08  .470000000000D+02
     .352806000000D+06  .400000000000D+01
28 14  6 12  4  0  0.0  .361653044820D-03  .272848410532D-11  .000000000000D+00
     .670000000000D+02 -.138375000000D+03  .389730519555D-08  .424201518656D+00
    -.734999775887D-05  .191370394314D-01  .670738518238D-05  .515367712593D+04
     .360000000000D+06 -.283122062683D-06  .230134103824D+01 -.484287738800D-07
     .986812727477D+00  .267500000000D+03 -.171506541934D+01 -.821962809479D-08
    -.357157734196D-09  .100000000000D+01  .179600000000D+04  .000000000000D+00
     .240000000000D+01  .000000000000D+00 -.107102096081D-07  .670000000000D+02
     .352806000000D+06  .400000000000D+01
29 14  6 12  4  0  0.0  .539116095752D-03  .261479726760D-11  .000000000000D+00
     .330000000000D+02 -.404375000000D+02  .412981488051D-08  .231446521280D+01
    -.231713056564D-05  .151058845222D-02  .118650496006D-04  .515369600105D+04
     .360000000000D+06  .100582838058D-06 -.294723874220D+01  .186264514923D-07
     .969961456045D+00  .157125000000D+03 -.849790230363D+00 -.764174688086D-08
     .582524264474D-09  .100000000000D+01  .179600000000D+04  .000000000000D+00
     .240000000000D+01  .000000000000D+00 -.977888703346D-08  .330000000000D+02
     .352806000000D+06  .400000000000D+01
30 14  6 12  4  0  0.0 -.252309255302D-04 -.659383658785D-11  .000000000000D+00
     .210000000000D+02  .471562500000D+02  .481305762603D-08 -.294366489331D+01
     .247359275818D-05  .778140965849D-03 -.201165676117D-06  .515369247627D+04
     .360000000000D+06 -.186264514923D-07  .126753582570D+01 -.577419996262D-07
     .958733268666D+00  .382437500000D+03  .274882778593D+01 -.861750181068D-08
     .120719314158D-09  .100000000000D+01  .179600000000D+04  .000000000000D+00
     .240000000000D+01  .000000000000D+00  .325962901115D-08  .210000000000D+02
     .352806000000D+06  .400000000000D+01
